[{"OBJECT_NAME":"KENT RIDGE 1","OBJECT_ID":"2015-077B","EPOCH":"2026-03-03T01:15:39.568320","MEAN_MOTION":15.22384681,"ECCENTRICITY":0.0008394,"INCLINATION":14.9806,"RA_OF_ASC_NODE":334.891,"ARG_OF_PERICENTER":183.0839,"MEAN_ANOMALY":176.9432,"EPHEMERIS_TYPE":0,"CLASSIFICATION_TYPE":"U","NORAD_CAT_ID":41167,"ELEMENT_SET_NO":999,"REV_AT_EPOCH":56489,"BSTAR":0.00019415,"MEAN_MOTION_DOT":5.385e-5,"MEAN_MOTION_DDOT":0},{"OBJECT_NAME":"GAOFEN-4","OBJECT_ID":"2015-083A","EPOCH":"2026-03-03T00:53:08.466720","MEAN_MOTION":1.00269912,"ECCENTRICITY":0.0003686,"INCLINATION":0.3758,"RA_OF_ASC_NODE":83.7971,"ARG_OF_PERICENTER":86.0963,"MEAN_ANOMALY":109.8743,"EPHEMERIS_TYPE":0,"CLASSIFICATION_TYPE":"U","NORAD_CAT_ID":41194,"ELEMENT_SET_NO":999,"REV_AT_EPOCH":3746,"BSTAR":0,"MEAN_MOTION_DOT":-3.5e-6,"MEAN_MOTION_DDOT":0},{"OBJECT_NAME":"JASON-3","OBJECT_ID":"2016-002A","EPOCH":"2026-03-03T03:19:31.150272","MEAN_MOTION":12.87628085,"ECCENTRICITY":0.000784,"INCLINATION":66.0449,"RA_OF_ASC_NODE":348.7932,"ARG_OF_PERICENTER":276.7802,"MEAN_ANOMALY":83.2324,"EPHEMERIS_TYPE":0,"CLASSIFICATION_TYPE":"U","NORAD_CAT_ID":41240,"ELEMENT_SET_NO":999,"REV_AT_EPOCH":47359,"BSTAR":8.7628e-5,"MEAN_MOTION_DOT":-4.0e-7,"MEAN_MOTION_DDOT":0},{"OBJECT_NAME":"SENTINEL-3A","OBJECT_ID":"2016-011A","EPOCH":"2026-03-03T04:19:24.385440","MEAN_MOTION":14.26738933,"ECCENTRICITY":0.0001232,"INCLINATION":98.6241,"RA_OF_ASC_NODE":131.0614,"ARG_OF_PERICENTER":100.6021,"MEAN_ANOMALY":259.5298,"EPHEMERIS_TYPE":0,"CLASSIFICATION_TYPE":"U","NORAD_CAT_ID":41335,"ELEMENT_SET_NO":999,"REV_AT_EPOCH":52294,"BSTAR":7.5475e-5,"MEAN_MOTION_DOT":1.39e-6,"MEAN_MOTION_DDOT":0},{"OBJECT_NAME":"ZIYUAN 3-02 (ZY 3-02)","OBJECT_ID":"2016-033A","EPOCH":"2026-03-03T05:30:07.021152","MEAN_MOTION":15.21439194,"ECCENTRICITY":0.0011383,"INCLINATION":97.3915,"RA_OF_ASC_NODE":140.0009,"ARG_OF_PERICENTER":324.14,"MEAN_ANOMALY":35.907,"EPHEMERIS_TYPE":0,"CLASSIFICATION_TYPE":"U","NORAD_CAT_ID":41556,"ELEMENT_SET_NO":999,"REV_AT_EPOCH":54187,"BSTAR":0.0003645,"MEAN_MOTION_DOT":8.134e-5,"MEAN_MOTION_DDOT":0},{"OBJECT_NAME":"CARTOSAT-2C","OBJECT_ID":"2016-040A","EPOCH":"2026-03-03T03:37:19.677216","MEAN_MOTION":15.19288787,"ECCENTRICITY":0.0010437,"INCLINATION":97.4626,"RA_OF_ASC_NODE":123.5141,"ARG_OF_PERICENTER":143.4535,"MEAN_ANOMALY":216.7413,"EPHEMERIS_TYPE":0,"CLASSIFICATION_TYPE":"U","NORAD_CAT_ID":41599,"ELEMENT_SET_NO":999,"REV_AT_EPOCH":53761,"BSTAR":0.0002726,"MEAN_MOTION_DOT":5.691e-5,"MEAN_MOTION_DDOT":0},{"OBJECT_NAME":"SKYSAT-C1","OBJECT_ID":"2016-040C","EPOCH":"2026-03-03T01:10:42.626208","MEAN_MOTION":15.343469,"ECCENTRICITY":0.0004007,"INCLINATION":96.9708,"RA_OF_ASC_NODE":99.583,"ARG_OF_PERICENTER":66.7763,"MEAN_ANOMALY":293.3903,"EPHEMERIS_TYPE":0,"CLASSIFICATION_TYPE":"U","NORAD_CAT_ID":41601,"ELEMENT_SET_NO":999,"REV_AT_EPOCH":54158,"BSTAR":0.00035069,"MEAN_MOTION_DOT":0.00011597,"MEAN_MOTION_DDOT":0},{"OBJECT_NAME":"LAPAN-A3","OBJECT_ID":"2016-040E","EPOCH":"2026-03-03T05:36:25.302816","MEAN_MOTION":15.32308183,"ECCENTRICITY":0.0011769,"INCLINATION":97.1472,"RA_OF_ASC_NODE":61.9299,"ARG_OF_PERICENTER":43.877,"MEAN_ANOMALY":316.3405,"EPHEMERIS_TYPE":0,"CLASSIFICATION_TYPE":"U","NORAD_CAT_ID":41603,"ELEMENT_SET_NO":999,"REV_AT_EPOCH":53858,"BSTAR":0.00015539,"MEAN_MOTION_DOT":4.781e-5,"MEAN_MOTION_DDOT":0},{"OBJECT_NAME":"GAOFEN-3","OBJECT_ID":"2016-049A","EPOCH":"2026-03-03T05:07:12.061056","MEAN_MOTION":14.42214624,"ECCENTRICITY":0.0001607,"INCLINATION":98.4049,"RA_OF_ASC_NODE":71.5827,"ARG_OF_PERICENTER":95.7408,"MEAN_ANOMALY":264.3965,"EPHEMERIS_TYPE":0,"CLASSIFICATION_TYPE":"U","NORAD_CAT_ID":41727,"ELEMENT_SET_NO":999,"REV_AT_EPOCH":50337,"BSTAR":7.294e-5,"MEAN_MOTION_DOT":1.97e-6,"MEAN_MOTION_DDOT":0},{"OBJECT_NAME":"SKYSAT-C4","OBJECT_ID":"2016-058B","EPOCH":"2026-03-03T01:12:09.270720","MEAN_MOTION":15.45093504,"ECCENTRICITY":9.1e-5,"INCLINATION":96.929,"RA_OF_ASC_NODE":88.4551,"ARG_OF_PERICENTER":78.484,"MEAN_ANOMALY":281.6512,"EPHEMERIS_TYPE":0,"CLASSIFICATION_TYPE":"U","NORAD_CAT_ID":41771,"ELEMENT_SET_NO":999,"REV_AT_EPOCH":52906,"BSTAR":0.00040663,"MEAN_MOTION_DOT":0.00019171,"MEAN_MOTION_DDOT":0},{"OBJECT_NAME":"SKYSAT-C5","OBJECT_ID":"2016-058C","EPOCH":"2026-03-03T02:35:01.437792","MEAN_MOTION":15.34136355,"ECCENTRICITY":0.0001895,"INCLINATION":97.0626,"RA_OF_ASC_NODE":107.4562,"ARG_OF_PERICENTER":85.5556,"MEAN_ANOMALY":274.5904,"EPHEMERIS_TYPE":0,"CLASSIFICATION_TYPE":"U","NORAD_CAT_ID":41772,"ELEMENT_SET_NO":999,"REV_AT_EPOCH":52748,"BSTAR":0.00031188,"MEAN_MOTION_DOT":0.00010232,"MEAN_MOTION_DDOT":0},{"OBJECT_NAME":"SKYSAT-C2","OBJECT_ID":"2016-058D","EPOCH":"2026-03-02T14:58:20.250336","MEAN_MOTION":15.39471988,"ECCENTRICITY":0.0005376,"INCLINATION":97.0285,"RA_OF_ASC_NODE":87.8558,"ARG_OF_PERICENTER":83.9934,"MEAN_ANOMALY":276.1925,"EPHEMERIS_TYPE":0,"CLASSIFICATION_TYPE":"U","NORAD_CAT_ID":41773,"ELEMENT_SET_NO":999,"REV_AT_EPOCH":52864,"BSTAR":0.00036418,"MEAN_MOTION_DOT":0.00014218,"MEAN_MOTION_DDOT":0},{"OBJECT_NAME":"SKYSAT-C3","OBJECT_ID":"2016-058E","EPOCH":"2026-03-03T00:42:56.327904","MEAN_MOTION":15.47964732,"ECCENTRICITY":0.0001519,"INCLINATION":96.9184,"RA_OF_ASC_NODE":97.1843,"ARG_OF_PERICENTER":100.8409,"MEAN_ANOMALY":259.3013,"EPHEMERIS_TYPE":0,"CLASSIFICATION_TYPE":"U","NORAD_CAT_ID":41774,"ELEMENT_SET_NO":999,"REV_AT_EPOCH":52966,"BSTAR":0.00045716,"MEAN_MOTION_DOT":0.00023815,"MEAN_MOTION_DDOT":0},{"OBJECT_NAME":"ALSAT-1B","OBJECT_ID":"2016-059C","EPOCH":"2026-03-03T03:30:40.308768","MEAN_MOTION":14.72180143,"ECCENTRICITY":0.0008593,"INCLINATION":97.7801,"RA_OF_ASC_NODE":75.4717,"ARG_OF_PERICENTER":199.3867,"MEAN_ANOMALY":160.7016,"EPHEMERIS_TYPE":0,"CLASSIFICATION_TYPE":"U","NORAD_CAT_ID":41785,"ELEMENT_SET_NO":999,"REV_AT_EPOCH":50497,"BSTAR":0.00013719,"MEAN_MOTION_DOT":8.18e-6,"MEAN_MOTION_DDOT":0},{"OBJECT_NAME":"PATHFINDER 1","OBJECT_ID":"2016-059E","EPOCH":"2026-03-02T23:31:40.874880","MEAN_MOTION":14.67503645,"ECCENTRICITY":0.0028383,"INCLINATION":97.8174,"RA_OF_ASC_NODE":66.0592,"ARG_OF_PERICENTER":182.0357,"MEAN_ANOMALY":178.0738,"EPHEMERIS_TYPE":0,"CLASSIFICATION_TYPE":"U","NORAD_CAT_ID":41787,"ELEMENT_SET_NO":999,"REV_AT_EPOCH":50413,"BSTAR":0.00017404,"MEAN_MOTION_DOT":9.45e-6,"MEAN_MOTION_DDOT":0},{"OBJECT_NAME":"SCATSAT 1","OBJECT_ID":"2016-059H","EPOCH":"2026-03-03T03:50:34.184832","MEAN_MOTION":14.79237143,"ECCENTRICITY":0.0054021,"INCLINATION":98.1318,"RA_OF_ASC_NODE":124.7968,"ARG_OF_PERICENTER":228.8378,"MEAN_ANOMALY":130.8166,"EPHEMERIS_TYPE":0,"CLASSIFICATION_TYPE":"U","NORAD_CAT_ID":41790,"ELEMENT_SET_NO":999,"REV_AT_EPOCH":8591,"BSTAR":0.00023516,"MEAN_MOTION_DOT":1.733e-5,"MEAN_MOTION_DDOT":0},{"OBJECT_NAME":"GOKTURK 1A","OBJECT_ID":"2016-073A","EPOCH":"2026-03-03T06:54:44.938368","MEAN_MOTION":14.62773111,"ECCENTRICITY":0.000132,"INCLINATION":98.1375,"RA_OF_ASC_NODE":318.5548,"ARG_OF_PERICENTER":79.2049,"MEAN_ANOMALY":280.9302,"EPHEMERIS_TYPE":0,"CLASSIFICATION_TYPE":"U","NORAD_CAT_ID":41875,"ELEMENT_SET_NO":999,"REV_AT_EPOCH":49334,"BSTAR":0.00012265,"MEAN_MOTION_DOT":5.79e-6,"MEAN_MOTION_DDOT":0}]
