KENT RIDGE 1            
1 41167U 15077B   26062.05254130  .00005385  00000+0  19415-3 0  9998
2 41167  14.9806 334.8910 0008394 183.0839 176.9432 15.22384681564897
GAOFEN-4                
1 41194U 15083A   26062.03690355 -.00000350  00000+0  00000+0 0  9990
2 41194   0.3758  83.7971 0003686  86.0963 109.8743  1.00269912 37466
JASON-3                 
1 41240U 16002A   26062.13855498 -.00000040  00000+0  87628-4 0  9998
2 41240  66.0449 348.7932 0007840 276.7802  83.2324 12.87628085473596
SENTINEL-3A             
1 41335U 16011A   26062.18014335  .00000139  00000+0  75475-4 0  9990
2 41335  98.6241 131.0614 0001232 100.6021 259.5298 14.26738933522940
ZIYUAN 3-02 (ZY 3-02)   
1 41556U 16033A   26062.22924793  .00008134  00000+0  36450-3 0  9994
2 41556  97.3915 140.0009 0011383 324.1400  35.9070 15.21439194541879
CARTOSAT-2C             
1 41599U 16040A   26062.15092219  .00005691  00000+0  27260-3 0  9994
2 41599  97.4626 123.5141 0010437 143.4535 216.7413 15.19288787537613
SKYSAT-C1               
1 41601U 16040C   26062.04910447  .00011597  00000+0  35069-3 0  9996
2 41601  96.9708  99.5830 0004007  66.7763 293.3903 15.34346900541580
LAPAN-A3                
1 41603U 16040E   26062.23362619  .00004781  00000+0  15539-3 0  9998
2 41603  97.1472  61.9299 0011769  43.8770 316.3405 15.32308183538580
GAOFEN-3                
1 41727U 16049A   26062.21333404  .00000197  00000+0  72940-4 0  9999
2 41727  98.4049  71.5827 0001607  95.7408 264.3965 14.42214624503377
SKYSAT-C4               
1 41771U 16058B   26062.05010730  .00019171  00000+0  40663-3 0  9992
2 41771  96.9290  88.4551 0000910  78.4840 281.6512 15.45093504529062
SKYSAT-C5               
1 41772U 16058C   26062.10765553  .00010232  00000+0  31188-3 0  9990
2 41772  97.0626 107.4562 0001895  85.5556 274.5904 15.34136355527488
SKYSAT-C2               
1 41773U 16058D   26061.62384549  .00014218  00000+0  36418-3 0  9998
2 41773  97.0285  87.8558 0005376  83.9934 276.1925 15.39471988528645
SKYSAT-C3               
1 41774U 16058E   26062.02981861  .00023815  00000+0  45716-3 0  9998
2 41774  96.9184  97.1843 0001519 100.8409 259.3013 15.47964732529661
ALSAT-1B                
1 41785U 16059C   26062.14629987  .00000818  00000+0  13719-3 0  9998
2 41785  97.7801  75.4717 0008593 199.3867 160.7016 14.72180143504975
PATHFINDER 1            
1 41787U 16059E   26061.98033420  .00000945  00000+0  17404-3 0  9998
2 41787  97.8174  66.0592 0028383 182.0357 178.0738 14.67503645504131
SCATSAT 1               
1 41790U 16059H   26062.16011788  .00001733  00000+0  23516-3 0  9993
2 41790  98.1318 124.7968 0054021 228.8378 130.8166 14.79237143 85919
GOKTURK 1A              
1 41875U 16073A   26062.28802012  .00000579  00000+0  12265-3 0  9990
2 41875  98.1375 318.5548 0001320  79.2049 280.9302 14.62773111493341
